FENGYUN 1C DEB          
1 31847U 99025CJM 17345.29535103  .00001106  00000-0  74623-3 0  9999
2 31847  99.2510  10.5500 0098011  64.3789 296.7463 14.00333644542239
